start=new Date('2022-08-13T00:00:00.000Z').valueOf();
sats=[{"PERIAPSIS":"546.074","MEAN_MOTION_DDOT":"0.0000000000000","INCLINATION":"53.0538","DECAY_DATE":null,"OBJECT_ID":"2020-025AM","APOAPSIS":"548.336","OBJECT_TYPE":"PAYLOAD","MEAN_ELEMENT_THEORY":"SGP4","ARG_OF_PERICENTER":"68.7702","BSTAR":"0.00003661700000","TIME_SYSTEM":"UTC","FILE":"3535350","OBJECT_NAME":"STARLINK-1358","MEAN_ANOMALY":"291.3461","ELEMENT_SET_NO":"999","TLE_LINE1":"1 45566U 20025AM  22224.30557898  .00000264  00000-0  36617-4 0  9991","REF_FRAME":"TEME","LAUNCH_DATE":"2020-04-22","MEAN_MOTION_DOT":"0.00000264","TLE_LINE2":"2 45566  53.0538 186.7268 0001633  68.7702 291.3461 15.06402741128617","GP_ID":"210075015","CENTER_NAME":"EARTH","SEMIMAJOR_AXIS":"6925.340","PERIOD":"95.592","CLASSIFICATION_TYPE":"U","SITE":"AFETR","ECCENTRICITY":"0.00016330","RCS_SIZE":"LARGE","EPHEMERIS_TYPE":"0","EPOCH":"2022-08-12T07:20:02.023872","NORAD_CAT_ID":"45566","MEAN_MOTION":"15.06402741","COUNTRY_CODE":"US","REV_AT_EPOCH":"12861","RA_OF_ASC_NODE":"186.7268"},{"REF_FRAME":"TEME","TLE_LINE1":"1 45567U 20025AN  22224.58203020 -.00000302  00000-0 -13705-5 0  9996","ELEMENT_SET_NO":"999","TLE_LINE2":"2 45567  53.0528 185.4627 0001574  75.0139 285.1024 15.06394271128660","GP_ID":"210104473","MEAN_MOTION_DOT":"-0.00000302","LAUNCH_DATE":"2020-04-22","SEMIMAJOR_AXIS":"6925.366","CENTER_NAME":"EARTH","PERIOD":"95.593","ECCENTRICITY":"0.00015740","SITE":"AFETR","CLASSIFICATION_TYPE":"U","MEAN_MOTION":"15.06394271","NORAD_CAT_ID":"45567","RCS_SIZE":"LARGE","EPHEMERIS_TYPE":"0","EPOCH":"2022-08-12T13:58:07.409280","REV_AT_EPOCH":"12866","RA_OF_ASC_NODE":"185.4627","COUNTRY_CODE":"US","MEAN_MOTION_DDOT":"0.0000000000000","PERIAPSIS":"546.141","INCLINATION":"53.0528","APOAPSIS":"548.321","OBJECT_ID":"2020-025AN","DECAY_DATE":null,"MEAN_ELEMENT_THEORY":"SGP4","ARG_OF_PERICENTER":"75.0139","OBJECT_TYPE":"PAYLOAD","TIME_SYSTEM":"UTC","BSTAR":"-0.00000137050000","FILE":"3535519","MEAN_ANOMALY":"285.1024","OBJECT_NAME":"STARLINK-1361"},{"PERIOD":"95.593","SEMIMAJOR_AXIS":"6925.366","CENTER_NAME":"EARTH","MEAN_MOTION_DOT":"0.00001288","LAUNCH_DATE":"2020-04-22","GP_ID":"210102722","TLE_LINE2":"2 45568  53.0534 185.6528 0001508  72.7427 287.3727 15.06394224128652","REF_FRAME":"TEME","ELEMENT_SET_NO":"999","TLE_LINE1":"1 45568U 20025AP  22224.59680473  .00001288  00000-0  10534-3 0  9996","COUNTRY_CODE":"US","REV_AT_EPOCH":"12865","RA_OF_ASC_NODE":"185.6528","NORAD_CAT_ID":"45568","MEAN_MOTION":"15.06394224","EPOCH":"2022-08-12T14:19:23.928672","RCS_SIZE":"LARGE","EPHEMERIS_TYPE":"0","ECCENTRICITY":"0.00015080","CLASSIFICATION_TYPE":"U","SITE":"AFETR","APOAPSIS":"548.276","DECAY_DATE":null,"OBJECT_ID":"2020-025AP","INCLINATION":"53.0534","MEAN_MOTION_DDOT":"0.0000000000000","PERIAPSIS":"546.187","MEAN_ANOMALY":"287.3727","OBJECT_NAME":"STARLINK-1363","FILE":"3535519","BSTAR":"0.00010534000000","TIME_SYSTEM":"UTC","OBJECT_TYPE":"PAYLOAD","ARG_OF_PERICENTER":"72.7427","MEAN_ELEMENT_THEORY":"SGP4"},{"PERIAPSIS":"546.026","MEAN_MOTION_DDOT":"0.0000000000000","DECAY_DATE":null,"OBJECT_ID":"2020-025AQ","APOAPSIS":"548.413","INCLINATION":"53.0543","BSTAR":"0.00010171000000","TIME_SYSTEM":"UTC","OBJECT_TYPE":"PAYLOAD","MEAN_ELEMENT_THEORY":"SGP4","ARG_OF_PERICENTER":"66.5021","OBJECT_NAME":"STARLINK-1366","MEAN_ANOMALY":"293.6149","FILE":"3535519","MEAN_MOTION_DOT":"0.00001234","LAUNCH_DATE":"2020-04-22","GP_ID":"210102972","TLE_LINE2":"2 45569  53.0543 185.4606 0001724  66.5021 293.6149 15.06398059128657","ELEMENT_SET_NO":"999","TLE_LINE1":"1 45569U 20025AQ  22224.58571323  .00001234  00000-0  10171-3 0  9997","REF_FRAME":"TEME","PERIOD":"95.592","CENTER_NAME":"EARTH","SEMIMAJOR_AXIS":"6925.355","CLASSIFICATION_TYPE":"U","SITE":"AFETR","ECCENTRICITY":"0.00017240","COUNTRY_CODE":"US","REV_AT_EPOCH":"12865","RA_OF_ASC_NODE":"185.4606","RCS_SIZE":"LARGE","EPHEMERIS_TYPE":"0","EPOCH":"2022-08-12T14:03:25.623072","NORAD_CAT_ID":"45569","MEAN_MOTION":"15.06398059"},{"SEMIMAJOR_AXIS":"6925.312","CENTER_NAME":"EARTH","PERIOD":"95.591","REF_FRAME":"TEME","TLE_LINE1":"1 45570U 20025AR  22224.31295179  .00005456  00000-0  38476-3 0  9990","ELEMENT_SET_NO":"999","TLE_LINE2":"2 45570  53.0527 186.6745 0001612  74.9656 285.1511 15.06411776128618","GP_ID":"210074516","MEAN_MOTION_DOT":"0.00005456","LAUNCH_DATE":"2020-04-22","MEAN_MOTION":"15.06411776","NORAD_CAT_ID":"45570","EPHEMERIS_TYPE":"0","RCS_SIZE":"LARGE","EPOCH":"2022-08-12T07:30:39.034656","RA_OF_ASC_NODE":"186.6745","REV_AT_EPOCH":"12861","COUNTRY_CODE":"US","ECCENTRICITY":"0.00016120","CLASSIFICATION_TYPE":"U","SITE":"AFETR","INCLINATION":"53.0527","APOAPSIS":"548.294","OBJECT_ID":"2020-025AR","DECAY_DATE":null,"MEAN_MOTION_DDOT":"0.0000000000000","PERIAPSIS":"546.061","FILE":"3535350","MEAN_ANOMALY":"285.1511","OBJECT_NAME":"STARLINK-1376","ARG_OF_PERICENTER":"74.9656","MEAN_ELEMENT_THEORY":"SGP4","OBJECT_TYPE":"PAYLOAD","TIME_SYSTEM":"UTC","BSTAR":"0.00038476000000"},{"PERIAPSIS":"546.119","MEAN_MOTION_DDOT":"0.0000000000000","INCLINATION":"53.0521","OBJECT_ID":"2020-025AS","DECAY_DATE":null,"APOAPSIS":"548.284","ARG_OF_PERICENTER":"73.9029","MEAN_ELEMENT_THEORY":"SGP4","OBJECT_TYPE":"PAYLOAD","TIME_SYSTEM":"UTC","BSTAR":"0.00020891000000","FILE":"3535519","OBJECT_NAME":"STARLINK-1261","MEAN_ANOMALY":"286.2132","TLE_LINE1":"1 45571U 20025AS  22224.59400225  .00002832  00000-0  20891-3 0  9998","ELEMENT_SET_NO":"999","REF_FRAME":"TEME","TLE_LINE2":"2 45571  53.0521 175.4133 0001563  73.9029 286.2132 15.06403933128817","GP_ID":"210103973","MEAN_MOTION_DOT":"0.00002832","LAUNCH_DATE":"2020-04-22","CENTER_NAME":"EARTH","SEMIMAJOR_AXIS":"6925.337","PERIOD":"95.592","SITE":"AFETR","CLASSIFICATION_TYPE":"U","ECCENTRICITY":"0.00015630","RCS_SIZE":"LARGE","EPOCH":"2022-08-12T14:15:21.794400","EPHEMERIS_TYPE":"0","MEAN_MOTION":"15.06403933","NORAD_CAT_ID":"45571","REV_AT_EPOCH":"12881","RA_OF_ASC_NODE":"175.4133","COUNTRY_CODE":"US"},{"COUNTRY_CODE":"US","RA_OF_ASC_NODE":"174.2675","REV_AT_EPOCH":"12884","NORAD_CAT_ID":"45572","MEAN_MOTION":"15.06397854","EPOCH":"2022-08-12T20:26:54.698208","RCS_SIZE":"LARGE","EPHEMERIS_TYPE":"0","ECCENTRICITY":"0.00016490","SITE":"AFETR","CLASSIFICATION_TYPE":"U","PERIOD":"95.592","SEMIMAJOR_AXIS":"6925.355","CENTER_NAME":"EARTH","MEAN_MOTION_DOT":"0.00002041","LAUNCH_DATE":"2020-04-22","GP_ID":"210103223","TLE_LINE2":"2 45572  53.0530 174.2675 0001649  82.9880 277.1297 15.06397854128844","REF_FRAME":"TEME","ELEMENT_SET_NO":"999","TLE_LINE1":"1 45572U 20025AT  22224.85202197  .00002041  00000-0  15587-3 0  9994","MEAN_ANOMALY":"277.1297","OBJECT_NAME":"STARLINK-1320","FILE":"3535519","BSTAR":"0.00015587000000","TIME_SYSTEM":"UTC","OBJECT_TYPE":"PAYLOAD","MEAN_ELEMENT_THEORY":"SGP4","ARG_OF_PERICENTER":"82.9880","APOAPSIS":"548.362","DECAY_DATE":null,"OBJECT_ID":"2020-025AT","INCLINATION":"53.0530","MEAN_MOTION_DDOT":"0.0000000000000","PERIAPSIS":"546.078"},{"EPOCH":"2022-08-12T13:32:54.855456","RCS_SIZE":"LARGE","EPHEMERIS_TYPE":"0","MEAN_MOTION":"15.06393525","NORAD_CAT_ID":"45573","REV_AT_EPOCH":"12849","RA_OF_ASC_NODE":"175.5628","COUNTRY_CODE":"US","CLASSIFICATION_TYPE":"U","SITE":"AFETR","ECCENTRICITY":"0.00019100","CENTER_NAME":"EARTH","SEMIMAJOR_AXIS":"6925.368","PERIOD":"95.593","TLE_LINE1":"1 45573U 20025AU  22224.56452379  .00002363  00000-0  17751-3 0  9994","ELEMENT_SET_NO":"999","REF_FRAME":"TEME","TLE_LINE2":"2 45573  53.0548 175.5628 0001910  64.3972 295.7214 15.06393525128490","GP_ID":"210103472","LAUNCH_DATE":"2020-04-22","MEAN_MOTION_DOT":"0.00002363","FILE":"3535519","OBJECT_NAME":"STARLINK-1321","MEAN_ANOMALY":"295.7214","MEAN_ELEMENT_THEORY":"SGP4","ARG_OF_PERICENTER":"64.3972","OBJECT_TYPE":"PAYLOAD","TIME_SYSTEM":"UTC","BSTAR":"0.00017751000000","INCLINATION":"53.0548","OBJECT_ID":"2020-025AU","DECAY_DATE":null,"APOAPSIS":"548.556","PERIAPSIS":"545.911","MEAN_MOTION_DDOT":"0.0000000000000"},{"OBJECT_NAME":"STARLINK-1324","MEAN_ANOMALY":"284.4872","FILE":"3535519","BSTAR":"0.00062268000000","TIME_SYSTEM":"UTC","OBJECT_TYPE":"PAYLOAD","ARG_OF_PERICENTER":"75.6284","MEAN_ELEMENT_THEORY":"SGP4","DECAY_DATE":null,"OBJECT_ID":"2020-025AV","APOAPSIS":"548.212","INCLINATION":"53.0518","PERIAPSIS":"546.130","MEAN_MOTION_DDOT":"0.0000000000000","COUNTRY_CODE":"US","RA_OF_ASC_NODE":"175.4309","REV_AT_EPOCH":"12881","EPOCH":"2022-08-12T14:10:04.275264","RCS_SIZE":"LARGE","EPHEMERIS_TYPE":"0","NORAD_CAT_ID":"45574","MEAN_MOTION":"15.06413850","SITE":"AFETR","CLASSIFICATION_TYPE":"U","ECCENTRICITY":"0.00015030","PERIOD":"95.591","CENTER_NAME":"EARTH","SEMIMAJOR_AXIS":"6925.306","LAUNCH_DATE":"2020-04-22","MEAN_MOTION_DOT":"0.00009009","TLE_LINE2":"2 45574  53.0518 175.4309 0001503  75.6284 284.4872 15.06413850128817","GP_ID":"210103723","ELEMENT_SET_NO":"999","TLE_LINE1":"1 45574U 20025AV  22224.59032726  .00009009  00000-0  62268-3 0  9995","REF_FRAME":"TEME"},{"CLASSIFICATION_TYPE":"U","SITE":"AFETR","ECCENTRICITY":"0.00013020","COUNTRY_CODE":"US","RA_OF_ASC_NODE":"159.9986","REV_AT_EPOCH":"12898","EPOCH":"2022-08-12T12:43:57.317664","RCS_SIZE":"LARGE","EPHEMERIS_TYPE":"0","NORAD_CAT_ID":"45575","MEAN_MOTION":"15.16543257","MEAN_MOTION_DOT":"0.00018263","LAUNCH_DATE":"2020-04-22","TLE_LINE2":"2 45575  52.9975 159.9986 0001302  50.8972 309.2136 15.16543257128980","GP_ID":"210104474","ELEMENT_SET_NO":"999","TLE_LINE1":"1 45575U 20025AW  22224.53052451  .00018263  00000-0  93850-3 0  9990","REF_FRAME":"TEME","PERIOD":"94.953","CENTER_NAME":"EARTH","SEMIMAJOR_AXIS":"6894.434","BSTAR":"0.00093850000000","TIME_SYSTEM":"UTC","OBJECT_TYPE":"PAYLOAD","MEAN_ELEMENT_THEORY":"SGP4","ARG_OF_PERICENTER":"50.8972","OBJECT_NAME":"STARLINK-1326","MEAN_ANOMALY":"309.2136","FILE":"3535519","PERIAPSIS":"515.402","MEAN_MOTION_DDOT":"0.0000000000000","DECAY_DATE":null,"OBJECT_ID":"2020-025AW","APOAPSIS":"517.197","INCLINATION":"52.9975"}];
